[
  {
    "OBJECT_NAME": "STARLINK-11626 [DTC]",
    "OBJECT_ID": "2025-075J",
    "EPOCH": "2025-05-04T06:00:02.000160",
    "MEAN_MOTION": 15.77841677,
    "ECCENTRICITY": 0.0001918,
    "INCLINATION": 43.0002,
    "RA_OF_ASC_NODE": 221.0607,
    "ARG_OF_PERICENTER": 256.3664,
    "MEAN_ANOMALY": 295.2301,
    "EPHEMERIS_TYPE": 0,
    "CLASSIFICATION_TYPE": "U",
    "NORAD_CAT_ID": 63556,
    "ELEMENT_SET_NO": 999,
    "REV_AT_EPOCH": 455,
    "BSTAR": 8.561e-05,
    "MEAN_MOTION_DOT": 0.00014414,
    "MEAN_MOTION_DDOT": 0
  },
  {
    "OBJECT_NAME": "STARLINK-11668 [DTC]",
    "OBJECT_ID": "2025-075K",
    "EPOCH": "2025-05-04T06:00:02.000160",
    "MEAN_MOTION": 15.79343894,
    "ECCENTRICITY": 0.0001651,
    "INCLINATION": 43.0002,
    "RA_OF_ASC_NODE": 220.9958,
    "ARG_OF_PERICENTER": 271.8728,
    "MEAN_ANOMALY": 305.6677,
    "EPHEMERIS_TYPE": 0,
    "CLASSIFICATION_TYPE": "U",
    "NORAD_CAT_ID": 63557,
    "ELEMENT_SET_NO": 999,
    "REV_AT_EPOCH": 455,
    "BSTAR": -0.0060373,
    "MEAN_MOTION_DOT": -0.01000601,
    "MEAN_MOTION_DDOT": 0
  },
  {
    "OBJECT_NAME": "STARLINK-11657 [DTC]",
    "OBJECT_ID": "2025-075L",
    "EPOCH": "2025-05-03T07:47:56.863680",
    "MEAN_MOTION": 15.84075192,
    "ECCENTRICITY": 0.0002239,
    "INCLINATION": 43.0029,
    "RA_OF_ASC_NODE": 226.6217,
    "ARG_OF_PERICENTER": 227.1588,
    "MEAN_ANOMALY": 132.9097,
    "EPHEMERIS_TYPE": 0,
    "CLASSIFICATION_TYPE": "U",
    "NORAD_CAT_ID": 63558,
    "ELEMENT_SET_NO": 999,
    "REV_AT_EPOCH": 441,
    "BSTAR": -0.00097028,
    "MEAN_MOTION_DOT": -0.00220213,
    "MEAN_MOTION_DDOT": 0
  },
  {
    "OBJECT_NAME": "STARLINK-11606 [DTC]",
    "OBJECT_ID": "2025-075M",
    "EPOCH": "2025-05-04T06:00:02.000160",
    "MEAN_MOTION": 15.83570485,
    "ECCENTRICITY": 0.0001682,
    "INCLINATION": 43.0001,
    "RA_OF_ASC_NODE": 220.921,
    "ARG_OF_PERICENTER": 254.3302,
    "MEAN_ANOMALY": 353.1848,
    "EPHEMERIS_TYPE": 0,
    "CLASSIFICATION_TYPE": "U",
    "NORAD_CAT_ID": 63559,
    "ELEMENT_SET_NO": 999,
    "REV_AT_EPOCH": 455,
    "BSTAR": -0.0046788,
    "MEAN_MOTION_DOT": -0.00951536,
    "MEAN_MOTION_DDOT": 0
  },
  {
    "OBJECT_NAME": "STARLINK-11592 [DTC]",
    "OBJECT_ID": "2025-075N",
    "EPOCH": "2025-05-03T22:53:53.270592",
    "MEAN_MOTION": 15.84826676,
    "ECCENTRICITY": 0.0001096,
    "INCLINATION": 43.0002,
    "RA_OF_ASC_NODE": 222.7334,
    "ARG_OF_PERICENTER": 315.3723,
    "MEAN_ANOMALY": 44.7061,
    "EPHEMERIS_TYPE": 0,
    "CLASSIFICATION_TYPE": "U",
    "NORAD_CAT_ID": 63560,
    "ELEMENT_SET_NO": 999,
    "REV_AT_EPOCH": 450,
    "BSTAR": 0.00065302,
    "MEAN_MOTION_DOT": 0.00159463,
    "MEAN_MOTION_DDOT": 0
  },
  {
    "OBJECT_NAME": "STARLINK-32953",
    "OBJECT_ID": "2025-075P",
    "EPOCH": "2025-05-04T06:00:02.000160",
    "MEAN_MOTION": 15.50585019,
    "ECCENTRICITY": 0.0001407,
    "INCLINATION": 42.9995,
    "RA_OF_ASC_NODE": 222.6112,
    "ARG_OF_PERICENTER": 281.7996,
    "MEAN_ANOMALY": 4.7658,
    "EPHEMERIS_TYPE": 0,
    "CLASSIFICATION_TYPE": "U",
    "NORAD_CAT_ID": 63561,
    "ELEMENT_SET_NO": 999,
    "REV_AT_EPOCH": 454,
    "BSTAR": -0.0004821,
    "MEAN_MOTION_DOT": -0.00028527,
    "MEAN_MOTION_DDOT": 0
  },
  {
    "OBJECT_NAME": "STARLINK-32951",
    "OBJECT_ID": "2025-075Q",
    "EPOCH": "2025-05-04T06:00:02.000160",
    "MEAN_MOTION": 15.60740083,
    "ECCENTRICITY": 0.0001427,
    "INCLINATION": 42.9994,
    "RA_OF_ASC_NODE": 221.6664,
    "ARG_OF_PERICENTER": 266.607,
    "MEAN_ANOMALY": 40.1302,
    "EPHEMERIS_TYPE": 0,
    "CLASSIFICATION_TYPE": "U",
    "NORAD_CAT_ID": 63562,
    "ELEMENT_SET_NO": 999,
    "REV_AT_EPOCH": 456,
    "BSTAR": -0.018972,
    "MEAN_MOTION_DOT": -0.01452634,
    "MEAN_MOTION_DDOT": 0
  },
  {
    "OBJECT_NAME": "STARLINK-32958",
    "OBJECT_ID": "2025-075R",
    "EPOCH": "2025-05-04T06:00:02.000160",
    "MEAN_MOTION": 15.50583249,
    "ECCENTRICITY": 0.0001381,
    "INCLINATION": 42.9995,
    "RA_OF_ASC_NODE": 222.6061,
    "ARG_OF_PERICENTER": 282.5002,
    "MEAN_ANOMALY": 5.9822,
    "EPHEMERIS_TYPE": 0,
    "CLASSIFICATION_TYPE": "U",
    "NORAD_CAT_ID": 63563,
    "ELEMENT_SET_NO": 999,
    "REV_AT_EPOCH": 455,
    "BSTAR": -0.00047559,
    "MEAN_MOTION_DOT": -0.00028146,
    "MEAN_MOTION_DDOT": 0
  },
  {
    "OBJECT_NAME": "STARLINK-32928",
    "OBJECT_ID": "2025-075S",
    "EPOCH": "2025-05-04T06:00:02.000160",
    "MEAN_MOTION": 15.50600158,
    "ECCENTRICITY": 0.0001362,
    "INCLINATION": 42.9995,
    "RA_OF_ASC_NODE": 222.6016,
    "ARG_OF_PERICENTER": 271.7236,
    "MEAN_ANOMALY": 18.6734,
    "EPHEMERIS_TYPE": 0,
    "CLASSIFICATION_TYPE": "U",
    "NORAD_CAT_ID": 63564,
    "ELEMENT_SET_NO": 999,
    "REV_AT_EPOCH": 454,
    "BSTAR": -0.00068422,
    "MEAN_MOTION_DOT": -0.00040305,
    "MEAN_MOTION_DDOT": 0
  },
  {
    "OBJECT_NAME": "STARLINK-32687",
    "OBJECT_ID": "2025-075T",
    "EPOCH": "2025-05-04T06:00:02.000160",
    "MEAN_MOTION": 15.60737938,
    "ECCENTRICITY": 0.0001613,
    "INCLINATION": 42.9994,
    "RA_OF_ASC_NODE": 221.6621,
    "ARG_OF_PERICENTER": 266.2353,
    "MEAN_ANOMALY": 42.4211,
    "EPHEMERIS_TYPE": 0,
    "CLASSIFICATION_TYPE": "U",
    "NORAD_CAT_ID": 63565,
    "ELEMENT_SET_NO": 999,
    "REV_AT_EPOCH": 456,
    "BSTAR": -0.018952,
    "MEAN_MOTION_DOT": -0.0145124,
    "MEAN_MOTION_DDOT": 0
  },
  {
    "OBJECT_NAME": "STARLINK-32950",
    "OBJECT_ID": "2025-075U",
    "EPOCH": "2025-05-04T06:00:02.000160",
    "MEAN_MOTION": 15.6996106,
    "ECCENTRICITY": 0.0001262,
    "INCLINATION": 42.9994,
    "RA_OF_ASC_NODE": 220.9297,
    "ARG_OF_PERICENTER": 266.4385,
    "MEAN_ANOMALY": 335.3564,
    "EPHEMERIS_TYPE": 0,
    "CLASSIFICATION_TYPE": "U",
    "NORAD_CAT_ID": 63566,
    "ELEMENT_SET_NO": 999,
    "REV_AT_EPOCH": 456,
    "BSTAR": -0.010482,
    "MEAN_MOTION_DOT": -0.01171789,
    "MEAN_MOTION_DDOT": 0
  },
  {
    "OBJECT_NAME": "STARLINK-32954",
    "OBJECT_ID": "2025-075V",
    "EPOCH": "2025-05-04T06:00:02.000160",
    "MEAN_MOTION": 15.6073742,
    "ECCENTRICITY": 0.0001676,
    "INCLINATION": 42.9995,
    "RA_OF_ASC_NODE": 221.6529,
    "ARG_OF_PERICENTER": 265.2419,
    "MEAN_ANOMALY": 47.2472,
    "EPHEMERIS_TYPE": 0,
    "CLASSIFICATION_TYPE": "U",
    "NORAD_CAT_ID": 63567,
    "ELEMENT_SET_NO": 999,
    "REV_AT_EPOCH": 455,
    "BSTAR": -0.018912,
    "MEAN_MOTION_DOT": -0.01448496,
    "MEAN_MOTION_DDOT": 0
  },
  {
    "OBJECT_NAME": "STARLINK-32940",
    "OBJECT_ID": "2025-075W",
    "EPOCH": "2025-05-04T06:00:02.000160",
    "MEAN_MOTION": 15.60738468,
    "ECCENTRICITY": 0.0001625,
    "INCLINATION": 42.9995,
    "RA_OF_ASC_NODE": 221.6574,
    "ARG_OF_PERICENTER": 256.2232,
    "MEAN_ANOMALY": 54.3496,
    "EPHEMERIS_TYPE": 0,
    "CLASSIFICATION_TYPE": "U",
    "NORAD_CAT_ID": 63568,
    "ELEMENT_SET_NO": 999,
    "REV_AT_EPOCH": 456,
    "BSTAR": -0.018955,
    "MEAN_MOTION_DOT": -0.01451478,
    "MEAN_MOTION_DDOT": 0
  },
  {
    "OBJECT_NAME": "STARLINK-32959",
    "OBJECT_ID": "2025-076A",
    "EPOCH": "2025-05-03T22:00:01.999584",
    "MEAN_MOTION": 15.56179939,
    "ECCENTRICITY": 0.0001752,
    "INCLINATION": 42.9991,
    "RA_OF_ASC_NODE": 279.009,
    "ARG_OF_PERICENTER": 279.4975,
    "MEAN_ANOMALY": 113.1943,
    "EPHEMERIS_TYPE": 0,
    "CLASSIFICATION_TYPE": "U",
    "NORAD_CAT_ID": 63569,
    "ELEMENT_SET_NO": 999,
    "REV_AT_EPOCH": 413,
    "BSTAR": -0.022437,
    "MEAN_MOTION_DOT": -0.01444492,
    "MEAN_MOTION_DDOT": 0
  }
]