STARLINK-11626 [DTC]    
1 63556U 25075J   25124.25002315  .00014414  00000+0  85610-4 0  9993
2 63556  43.0002 221.0607 0001918 256.3664 295.2301 15.77841677  4554
STARLINK-11668 [DTC]    
1 63557U 25075K   25124.25002315 -.01000601  00000+0 -60373-2 0  9997
2 63557  43.0002 220.9958 0001651 271.8728 305.6677 15.79343894  4551
STARLINK-11657 [DTC]    
1 63558U 25075L   25123.32496370 -.00220213  00000+0 -97028-3 0  9993
2 63558  43.0029 226.6217 0002239 227.1588 132.9097 15.84075192  4414
STARLINK-11606 [DTC]    
1 63559U 25075M   25124.25002315 -.00951536  00000+0 -46788-2 0  9994
2 63559  43.0001 220.9210 0001682 254.3302 353.1848 15.83570485  4552
STARLINK-11592 [DTC]    
1 63560U 25075N   25123.95408878  .00159463  00000+0  65302-3 0  9997
2 63560  43.0002 222.7334 0001096 315.3723  44.7061 15.84826676  4508
STARLINK-32953          
1 63561U 25075P   25124.25002315 -.00028527  00000+0 -48210-3 0  9995
2 63561  42.9995 222.6112 0001407 281.7996   4.7658 15.50585019  4543
STARLINK-32951          
1 63562U 25075Q   25124.25002315 -.01452634  00000+0 -18972-1 0  9997
2 63562  42.9994 221.6664 0001427 266.6070  40.1302 15.60740083  4568
STARLINK-32958          
1 63563U 25075R   25124.25002315 -.00028146  00000+0 -47559-3 0  9999
2 63563  42.9995 222.6061 0001381 282.5002   5.9822 15.50583249  4556
STARLINK-32928          
1 63564U 25075S   25124.25002315 -.00040305  00000+0 -68422-3 0  9993
2 63564  42.9995 222.6016 0001362 271.7236  18.6734 15.50600158  4546
STARLINK-32687          
1 63565U 25075T   25124.25002315 -.01451240  00000+0 -18952-1 0  9990
2 63565  42.9994 221.6621 0001613 266.2353  42.4211 15.60737938  4560
STARLINK-32950          
1 63566U 25075U   25124.25002315 -.01171789  00000+0 -10482-1 0  9998
2 63566  42.9994 220.9297 0001262 266.4385 335.3564 15.69961060  4568
STARLINK-32954          
1 63567U 25075V   25124.25002315 -.01448496  00000+0 -18912-1 0  9997
2 63567  42.9995 221.6529 0001676 265.2419  47.2472 15.60737420  4558
STARLINK-32940          
1 63568U 25075W   25124.25002315 -.01451478  00000+0 -18955-1 0  9999
2 63568  42.9995 221.6574 0001625 256.2232  54.3496 15.60738468  4565
STARLINK-32959          
1 63569U 25076A   25123.91668981 -.01444492  00000+0 -22437-1 0  9998
2 63569  42.9991 279.0090 0001752 279.4975 113.1943 15.56179939  4135
